[{"OBJECT_NAME":"STARLINK-32196","OBJECT_ID":"2024-144F","EPOCH":"2026-03-09T17:26:05.318880","MEAN_MOTION":15.30184447,"ECCENTRICITY":0.00011849,"INCLINATION":53.1607,"RA_OF_ASC_NODE":217.0433,"ARG_OF_PERICENTER":85.0601,"MEAN_ANOMALY":275.0535,"EPHEMERIS_TYPE":0,"CLASSIFICATION_TYPE":"U","NORAD_CAT_ID":60430,"ELEMENT_SET_NO":999,"REV_AT_EPOCH":8931,"BSTAR":-2.484459e-6,"MEAN_MOTION_DOT":-4.33e-6,"MEAN_MOTION_DDOT":0},{"OBJECT_NAME":"TEVEL2-7","OBJECT_ID":"2025-052AE","EPOCH":"2026-03-09T15:52:01.887744","MEAN_MOTION":15.28414096,"ECCENTRICITY":0.00081048,"INCLINATION":97.4054,"RA_OF_ASC_NODE":324.3041,"ARG_OF_PERICENTER":124.683,"MEAN_ANOMALY":235.5175,"EPHEMERIS_TYPE":0,"CLASSIFICATION_TYPE":"U","NORAD_CAT_ID":63238,"ELEMENT_SET_NO":999,"REV_AT_EPOCH":5480,"BSTAR":0.00069668191,"MEAN_MOTION_DOT":0.00019244,"MEAN_MOTION_DDOT":0}]
